IRIDIUM 63 [-]          
1 25286U 98021B   24050.89494203  .00000515  00000+0  17206-3 0  9992
2 25286  86.3956 284.5847 0002188  82.1775 277.9670 14.35611561354484
IRIDIUM 69 [-]          
1 25319U 98026A   24050.96168846  .00000518  00000+0  15886-3 0  9998
2 25319  86.3978 299.3021 0003065 132.9780 227.1676 14.39805659353500
IRIDIUM 71 [-]          
1 25320U 98026B   24050.91855107  .00000631  00000+0  19368-3 0  9993
2 25320  86.3961 294.1073 0000896 164.7730 195.3496 14.40128641354015
IRIDIUM 73 [-]          
1 25344U 98032C   24050.91622628  .00000843  00000+0  21136-3 0  9997
2 25344  86.4379 251.6902 0002151 105.5512 254.5931 14.50302552360487
IRIDIUM 82 [-]          
1 25467U 98051A   24050.86094725  .00015787  00000+0  85851-3 0  9996
2 25467  86.3929 341.7022 0134918 294.9448  63.7819 15.06773756350658
